{"type":"FeatureCollection","properties":{"year":-1046},"features":[{"type":"Feature","properties":{"polityId":"middle-assyria","color":"#a0522d","name":{"en":"Middle Assyrian Empire","de":"Mittelassyrisches Reich","zh":"中亚述帝国"},"note":"Approximate educational outline","wiki":"https://en.wikipedia.org/wiki/Middle_Assyrian_Empire"},"geometry":{"type":"Polygon","coordinates":[[[40,34.5],[45.5,34.5],[45.5,38],[40,38],[40,34.5]]]}},{"type":"Feature","properties":{"polityId":"phoenicia","color":"#2e8b7a","name":{"en":"Phoenician cities","de":"Phönizische Städte","zh":"腓尼基城邦"},"note":"Approximate educational outline","wiki":"https://en.wikipedia.org/wiki/Phoenicia"},"geometry":{"type":"Polygon","coordinates":[[[34.6,32.8],[36.4,32.8],[36.4,35.2],[34.6,35.2],[34.6,32.8]]]}},{"type":"Feature","properties":{"polityId":"shang","color":"#c45c26","name":{"en":"Shang dynasty","de":"Shang-Dynastie","zh":"商朝"},"note":"Approximate educational outline","wiki":"https://en.wikipedia.org/wiki/Shang_dynasty"},"geometry":{"type":"Polygon","coordinates":[[[110,32],[120,32],[120,40],[110,40],[110,32]]]}}]}