{"type":"FeatureCollection","features":[{"type":"Feature","properties":{"polityId":"egypt-nk","color":"#c9a227","name":{"en":"New Kingdom Egypt","de":"Neues Reich Ägypten","zh":"埃及新王国"}},"geometry":{"type":"Polygon","coordinates":[[[29.5,22],[34.5,22],[34.5,31.5],[29.5,31.5],[29.5,22]]]}},{"type":"Feature","properties":{"polityId":"hittite","color":"#6b4c9a","name":{"en":"Hittite Empire","de":"Hethiterreich","zh":"赫梯帝国"}},"geometry":{"type":"Polygon","coordinates":[[[32,36],[42,36],[42,42],[32,42],[32,36]]]}},{"type":"Feature","properties":{"polityId":"assyria-mid","color":"#8b5a2b","name":{"en":"Middle Assyria","de":"Mittelassyrisches Reich","zh":"中亚述"}},"geometry":{"type":"Polygon","coordinates":[[[40,33],[48,33],[48,38],[40,38],[40,33]]]}},{"type":"Feature","properties":{"polityId":"mycenae","color":"#4a6fa5","name":{"en":"Mycenaean Greece","de":"Mykenisches Griechenland","zh":"迈锡尼希腊"}},"geometry":{"type":"Polygon","coordinates":[[[21,36],[27,36],[27,39],[21,39],[21,36]]]}},{"type":"Feature","properties":{"polityId":"shang","color":"#c45c26","name":{"en":"Shang China","de":"Shang-China","zh":"商朝"}},"geometry":{"type":"Polygon","coordinates":[[[108,32],[120,32],[120,42],[108,42],[108,32]]]}},{"type":"Feature","properties":{"polityId":"phoenicia","color":"#2e8b7a","name":{"en":"Phoenician cities","de":"Phönizische Städte","zh":"腓尼基城邦"}},"geometry":{"type":"Polygon","coordinates":[[[34.5,32.5],[36.5,32.5],[36.5,35],[34.5,35],[34.5,32.5]]]}}]}