{"type":"FeatureCollection","properties":{"year":-138},"features":[{"type":"Feature","properties":{"polityId":"ptolemaic","color":"#c9a227","name":{"en":"Ptolemaic Egypt","de":"Ptolemäisches Ägypten","zh":"托勒密埃及"},"note":"Approximate educational outline","wiki":"https://en.wikipedia.org/wiki/Ptolemaic_Kingdom"},"geometry":{"type":"Polygon","coordinates":[[[25,22],[36,22],[36,32],[25,32],[25,22]]]}},{"type":"Feature","properties":{"polityId":"han","color":"#c45c26","name":{"en":"Han dynasty","de":"Han-Dynastie","zh":"汉朝"},"note":"Approximate educational outline","wiki":"https://en.wikipedia.org/wiki/Han_dynasty"},"geometry":{"type":"Polygon","coordinates":[[[98,20],[122,20],[126,42],[108,45],[95,38],[98,20]]]}},{"type":"Feature","properties":{"polityId":"seleucid","color":"#b8860b","name":{"en":"Seleucid Empire","de":"Seleukidenreich","zh":"塞琉古帝国"},"note":"Approximate educational outline","wiki":"https://en.wikipedia.org/wiki/Seleucid_Empire"},"geometry":{"type":"Polygon","coordinates":[[[38,30],[55,30],[55,40],[38,40],[38,30]]]}},{"type":"Feature","properties":{"polityId":"parthia","color":"#b8860b","name":{"en":"Parthian Empire","de":"Partherreich","zh":"帕提亚帝国"},"note":"Approximate educational outline","wiki":"https://en.wikipedia.org/wiki/Parthian_Empire"},"geometry":{"type":"Polygon","coordinates":[[[44,28],[68,28],[68,40],[44,40],[44,28]]]}},{"type":"Feature","properties":{"polityId":"rome-west-med","color":"#8b0000","name":{"en":"Roman Republic / West Mediterranean","de":"Rom im westl. Mittelmeer","zh":"罗马西地中海"},"note":"Approximate educational outline","wiki":"https://en.wikipedia.org/wiki/Roman_Republic"},"geometry":{"type":"Polygon","coordinates":[[[-10,30],[20,30],[25,45],[5,55],[-10,48],[-10,30]]]}}]}