{"type":"FeatureCollection","properties":{"year":-1651},"features":[{"type":"Feature","properties":{"polityId":"egypt-mk","color":"#c9a227","name":{"en":"Middle Kingdom Egypt","de":"Mittleres Reich Ägypten","zh":"埃及中王国"},"note":"Approximate educational outline","wiki":"https://en.wikipedia.org/wiki/Middle_Kingdom_of_Egypt"},"geometry":{"type":"Polygon","coordinates":[[[29.8,22],[34.2,22],[34.2,31.4],[29.8,31.4],[29.8,22]]]}},{"type":"Feature","properties":{"polityId":"old-babylon","color":"#8b5a2b","name":{"en":"Old Babylonian kingdom","de":"Altbabylonisches Reich","zh":"古巴比伦王国"},"note":"Approximate educational outline","wiki":"https://en.wikipedia.org/wiki/First_Babylonian_Empire"},"geometry":{"type":"Polygon","coordinates":[[[43,30.5],[48,30.5],[48,34.5],[43,34.5],[43,30.5]]]}},{"type":"Feature","properties":{"polityId":"indus","color":"#2e8b7a","name":{"en":"Indus Valley Civilization","de":"Indus-Kultur","zh":"印度河文明"},"note":"Approximate educational outline","wiki":"https://en.wikipedia.org/wiki/Indus_Valley_Civilisation"},"geometry":{"type":"Polygon","coordinates":[[[66,23.5],[76,23.5],[76,32],[66,32],[66,23.5]]]}},{"type":"Feature","properties":{"polityId":"erlitou","color":"#b87333","name":{"en":"Erlitou culture","de":"Erlitou-Kultur","zh":"二里头文化"},"note":"Approximate educational outline","wiki":"https://en.wikipedia.org/wiki/Erlitou_culture"},"geometry":{"type":"Polygon","coordinates":[[[111.5,33.8],[113.5,33.8],[113.5,35.2],[111.5,35.2],[111.5,33.8]]]}},{"type":"Feature","properties":{"polityId":"xia","color":"#c17a3a","name":{"en":"Xia dynasty","de":"Xia-Dynastie","zh":"夏朝"},"note":"Approximate educational outline","wiki":"https://en.wikipedia.org/wiki/Xia_dynasty"},"geometry":{"type":"Polygon","coordinates":[[[110,33],[117,33],[117,37.5],[110,37.5],[110,33]]]}},{"type":"Feature","properties":{"polityId":"minoan","color":"#4a6fa5","name":{"en":"Minoan Crete","de":"Minoisches Kreta","zh":"米诺斯克里特"},"note":"Approximate educational outline","wiki":"https://en.wikipedia.org/wiki/Minoan_civilization"},"geometry":{"type":"Polygon","coordinates":[[[23.2,34.7],[26.5,34.7],[26.5,35.7],[23.2,35.7],[23.2,34.7]]]}}]}