{"type":"FeatureCollection","features":[{"type":"Feature","properties":{"polityId":"egypt-mk","color":"#c9a227","name":{"en":"Middle Kingdom Egypt","de":"Mittleres Reich Ägypten","zh":"埃及中王国"}},"geometry":{"type":"Polygon","coordinates":[[[29.5,22],[34.5,22],[34.5,31.5],[29.5,31.5],[29.5,22]]]}},{"type":"Feature","properties":{"polityId":"babylon-old","color":"#8b5a2b","name":{"en":"Old Babylonian sphere","de":"Altbabylonischer Raum","zh":"古巴比伦势力"}},"geometry":{"type":"Polygon","coordinates":[[[44,30],[48.5,30],[48.5,34],[44,34],[44,30]]]}},{"type":"Feature","properties":{"polityId":"indus","color":"#2e8b7a","name":{"en":"Indus Valley Civilization","de":"Indus-Kultur","zh":"印度河文明"}},"geometry":{"type":"Polygon","coordinates":[[[66,24],[76,24],[76,32],[66,32],[66,24]]]}},{"type":"Feature","properties":{"polityId":"xia-shang","color":"#c45c26","name":{"en":"Xia / early Shang","de":"Xia / frühes Shang","zh":"夏/早商"}},"geometry":{"type":"Polygon","coordinates":[[[108,32],[120,32],[120,42],[108,42],[108,32]]]}},{"type":"Feature","properties":{"polityId":"minoan","color":"#4a6fa5","name":{"en":"Minoan Crete","de":"Minoisches Kreta","zh":"米诺斯克里特"}},"geometry":{"type":"Polygon","coordinates":[[[23,34.5],[27,34.5],[27,36],[23,36],[23,34.5]]]}}]}