{"type":"FeatureCollection","properties":{"year":-2100},"features":[{"type":"Feature","properties":{"polityId":"ur-iii","color":"#8b5a2b","name":{"en":"Third Dynasty of Ur","de":"Dritte Dynastie von Ur","zh":"乌尔第三王朝"},"note":"Approximate educational outline","wiki":"https://en.wikipedia.org/wiki/Third_Dynasty_of_Ur"},"geometry":{"type":"Polygon","coordinates":[[[44,30],[48.5,30],[48.5,33.8],[44,33.8],[44,30]]]}},{"type":"Feature","properties":{"polityId":"indus","color":"#2e8b7a","name":{"en":"Indus Valley Civilization","de":"Indus-Kultur","zh":"印度河文明"},"note":"Approximate educational outline","wiki":"https://en.wikipedia.org/wiki/Indus_Valley_Civilisation"},"geometry":{"type":"Polygon","coordinates":[[[66,23.5],[76,23.5],[76,32],[66,32],[66,23.5]]]}},{"type":"Feature","properties":{"polityId":"longshan","color":"#c45c26","name":{"en":"Longshan culture","de":"Longshan-Kultur","zh":"龙山文化"},"note":"Approximate educational outline","wiki":"https://en.wikipedia.org/wiki/Longshan_culture"},"geometry":{"type":"Polygon","coordinates":[[[110,33],[119,33],[119,38],[110,38],[110,33]]]}},{"type":"Feature","properties":{"polityId":"cycladic","color":"#6b8cae","name":{"en":"Cycladic culture","de":"Kykladische Kultur","zh":"基克拉迪文化"},"note":"Approximate educational outline","wiki":"https://en.wikipedia.org/wiki/Cycladic_culture"},"geometry":{"type":"Polygon","coordinates":[[[24.2,36.3],[26,36.3],[26,37.9],[24.2,37.9],[24.2,36.3]]]}},{"type":"Feature","properties":{"polityId":"minoan","color":"#4a6fa5","name":{"en":"Minoan Crete","de":"Minoisches Kreta","zh":"米诺斯克里特"},"note":"Approximate educational outline","wiki":"https://en.wikipedia.org/wiki/Minoan_civilization"},"geometry":{"type":"Polygon","coordinates":[[[23.2,34.7],[26.5,34.7],[26.5,35.7],[23.2,35.7],[23.2,34.7]]]}}]}