{"type":"FeatureCollection","properties":{"year":-218},"features":[{"type":"Feature","properties":{"polityId":"ptolemaic","color":"#c9a227","name":{"en":"Ptolemaic Egypt","de":"Ptolemäisches Ägypten","zh":"托勒密埃及"},"note":"Approximate educational outline","wiki":"https://en.wikipedia.org/wiki/Ptolemaic_Kingdom"},"geometry":{"type":"Polygon","coordinates":[[[25,22],[36,22],[36,32],[25,32],[25,22]]]}},{"type":"Feature","properties":{"polityId":"maurya","color":"#2e8b7a","name":{"en":"Maurya Empire","de":"Maurya-Reich","zh":"孔雀帝国"},"note":"Approximate educational outline","wiki":"https://en.wikipedia.org/wiki/Maurya_Empire"},"geometry":{"type":"Polygon","coordinates":[[[68,12],[90,12],[92,32],[78,34],[68,28],[68,12]]]}},{"type":"Feature","properties":{"polityId":"qin","color":"#c45c26","name":{"en":"Qin dynasty","de":"Qin-Dynastie","zh":"秦朝"},"note":"Approximate educational outline","wiki":"https://en.wikipedia.org/wiki/Qin_dynasty"},"geometry":{"type":"Polygon","coordinates":[[[105,28],[118,28],[120,40],[108,41],[102,34],[105,28]]]}},{"type":"Feature","properties":{"polityId":"macedon-late","color":"#4a6fa5","name":{"en":"Antigonid Macedon","de":"Antigonidisches Makedonien","zh":"安提柯王朝马其顿"},"note":"Approximate educational outline","wiki":"https://en.wikipedia.org/wiki/Antigonid_dynasty"},"geometry":{"type":"Polygon","coordinates":[[[20,39],[28,39],[28,42.5],[20,42.5],[20,39]]]}},{"type":"Feature","properties":{"polityId":"seleucid","color":"#b8860b","name":{"en":"Seleucid Empire","de":"Seleukidenreich","zh":"塞琉古帝国"},"note":"Approximate educational outline","wiki":"https://en.wikipedia.org/wiki/Seleucid_Empire"},"geometry":{"type":"Polygon","coordinates":[[[38,30],[55,30],[55,40],[38,40],[38,30]]]}},{"type":"Feature","properties":{"polityId":"parthia-early","color":"#b8860b","name":{"en":"Parthia (Arsacid kingdom)","de":"Parthien (Arsakiden)","zh":"帕提亚（安息）"},"note":"Approximate educational outline","wiki":"https://en.wikipedia.org/wiki/Parthian_Empire"},"geometry":{"type":"Polygon","coordinates":[[[52,35],[62,35],[62,40],[52,40],[52,35]]]}},{"type":"Feature","properties":{"polityId":"rome-early","color":"#8b0000","name":{"en":"Roman Republic (Italy)","de":"Römische Republik (Italien)","zh":"罗马共和国（意大利）"},"note":"Approximate educational outline","wiki":"https://en.wikipedia.org/wiki/Roman_Republic"},"geometry":{"type":"Polygon","coordinates":[[[8,37],[18.5,37],[18.5,46],[8,46],[8,37]]]}},{"type":"Feature","properties":{"polityId":"carthage","color":"#8b4513","name":{"en":"Carthaginian sphere","de":"Karthagischer Raum","zh":"迦太基势力"},"note":"Approximate educational outline","wiki":"https://en.wikipedia.org/wiki/Ancient_Carthage"},"geometry":{"type":"Polygon","coordinates":[[[-10,30],[12,30],[12,37.5],[-5,37.5],[-10,34],[-10,30]]]}}]}