{"type":"FeatureCollection","properties":{"year":-2334},"features":[{"type":"Feature","properties":{"polityId":"egypt-ok","color":"#c9a227","name":{"en":"Old Kingdom Egypt","de":"Altes Reich Ägypten","zh":"埃及古王国"},"note":"Approximate educational outline","wiki":"https://en.wikipedia.org/wiki/Old_Kingdom_of_Egypt"},"geometry":{"type":"Polygon","coordinates":[[[29.8,22],[34.2,22],[34.2,31.4],[29.8,31.4],[29.8,22]]]}},{"type":"Feature","properties":{"polityId":"akkad","color":"#8b5a2b","name":{"en":"Akkadian Empire","de":"Akkadisches Reich","zh":"阿卡德帝国"},"note":"Approximate educational outline","wiki":"https://en.wikipedia.org/wiki/Akkadian_Empire"},"geometry":{"type":"Polygon","coordinates":[[[40,30],[49,30],[49,37],[42,38],[40,34],[40,30]]]}},{"type":"Feature","properties":{"polityId":"indus","color":"#2e8b7a","name":{"en":"Indus Valley Civilization","de":"Indus-Kultur","zh":"印度河文明"},"note":"Approximate educational outline","wiki":"https://en.wikipedia.org/wiki/Indus_Valley_Civilisation"},"geometry":{"type":"Polygon","coordinates":[[[66,23.5],[76,23.5],[76,32],[66,32],[66,23.5]]]}},{"type":"Feature","properties":{"polityId":"liangzhu","color":"#2e8b7a","name":{"en":"Liangzhu culture","de":"Liangzhu-Kultur","zh":"良渚文明"},"note":"Approximate educational outline","wiki":"https://en.wikipedia.org/wiki/Liangzhu_culture"},"geometry":{"type":"Polygon","coordinates":[[[119.2,30],[121.2,30],[121.2,31.4],[119.2,31.4],[119.2,30]]]}},{"type":"Feature","properties":{"polityId":"longshan","color":"#c45c26","name":{"en":"Longshan culture","de":"Longshan-Kultur","zh":"龙山文化"},"note":"Approximate educational outline","wiki":"https://en.wikipedia.org/wiki/Longshan_culture"},"geometry":{"type":"Polygon","coordinates":[[[110,33],[119,33],[119,38],[110,38],[110,33]]]}}]}