{"type":"FeatureCollection","features":[{"type":"Feature","properties":{"polityId":"egypt-old","color":"#c9a227","name":{"en":"Egypt (Early Dynastic / Old Kingdom)","de":"Ägypten (Frühdynastisch / Altes Reich)","zh":"埃及（早王朝/古王国）"}},"geometry":{"type":"Polygon","coordinates":[[[29.5,22],[34.5,22],[34.5,31.5],[29.5,31.5],[29.5,22]]]}},{"type":"Feature","properties":{"polityId":"sumer","color":"#8b5a2b","name":{"en":"Sumerian city-states","de":"Sumerische Stadtstaaten","zh":"苏美尔城邦"}},"geometry":{"type":"Polygon","coordinates":[[[44,30],[48.5,30],[48.5,34],[44,34],[44,30]]]}},{"type":"Feature","properties":{"polityId":"indus-early","color":"#2e8b7a","name":{"en":"Indus Valley (early)","de":"Industal (früh)","zh":"印度河流域（早期）"}},"geometry":{"type":"Polygon","coordinates":[[[66,24],[76,24],[76,32],[66,32],[66,24]]]}},{"type":"Feature","properties":{"polityId":"yellow-river","color":"#c45c26","name":{"en":"Yellow River cultures","de":"Gelber-Fluss-Kulturen","zh":"黄河流域文化"}},"geometry":{"type":"Polygon","coordinates":[[[108,32],[120,32],[120,42],[108,42],[108,32]]]}}]}