{"type":"FeatureCollection","properties":{"year":-312},"features":[{"type":"Feature","properties":{"polityId":"maurya","color":"#2e8b7a","name":{"en":"Maurya Empire","de":"Maurya-Reich","zh":"孔雀帝国"},"note":"Approximate educational outline","wiki":"https://en.wikipedia.org/wiki/Maurya_Empire"},"geometry":{"type":"Polygon","coordinates":[[[68,12],[90,12],[92,32],[78,34],[68,28],[68,12]]]}},{"type":"Feature","properties":{"polityId":"warring-states","color":"#c45c26","name":{"en":"Warring States China","de":"Zeit der Streitenden Reiche","zh":"战国"},"note":"Approximate educational outline","wiki":"https://en.wikipedia.org/wiki/Warring_States_period"},"geometry":{"type":"Polygon","coordinates":[[[104,25],[122,25],[123,42],[108,42],[100,36],[104,25]]]}},{"type":"Feature","properties":{"polityId":"seleucid","color":"#b8860b","name":{"en":"Seleucid Empire","de":"Seleukidenreich","zh":"塞琉古帝国"},"note":"Approximate educational outline","wiki":"https://en.wikipedia.org/wiki/Seleucid_Empire"},"geometry":{"type":"Polygon","coordinates":[[[38,30],[55,30],[55,40],[38,40],[38,30]]]}},{"type":"Feature","properties":{"polityId":"rome-early","color":"#8b0000","name":{"en":"Roman Republic (Italy)","de":"Römische Republik (Italien)","zh":"罗马共和国（意大利）"},"note":"Approximate educational outline","wiki":"https://en.wikipedia.org/wiki/Roman_Republic"},"geometry":{"type":"Polygon","coordinates":[[[8,37],[18.5,37],[18.5,46],[8,46],[8,37]]]}},{"type":"Feature","properties":{"polityId":"carthage","color":"#8b4513","name":{"en":"Carthaginian sphere","de":"Karthagischer Raum","zh":"迦太基势力"},"note":"Approximate educational outline","wiki":"https://en.wikipedia.org/wiki/Ancient_Carthage"},"geometry":{"type":"Polygon","coordinates":[[[-10,30],[12,30],[12,37.5],[-5,37.5],[-10,34],[-10,30]]]}}]}