{"type":"FeatureCollection","properties":{"year":-3200},"features":[{"type":"Feature","properties":{"polityId":"sumer","color":"#8b5a2b","name":{"en":"Sumerian city-states","de":"Sumerische Stadtstaaten","zh":"苏美尔城邦"},"note":"Approximate educational outline","wiki":"https://en.wikipedia.org/wiki/Sumer"},"geometry":{"type":"Polygon","coordinates":[[[44,30],[48.5,30],[48.5,33.8],[44,33.8],[44,30]]]}},{"type":"Feature","properties":{"polityId":"indus","color":"#2e8b7a","name":{"en":"Indus Valley Civilization","de":"Indus-Kultur","zh":"印度河文明"},"note":"Approximate educational outline","wiki":"https://en.wikipedia.org/wiki/Indus_Valley_Civilisation"},"geometry":{"type":"Polygon","coordinates":[[[66,23.5],[76,23.5],[76,32],[66,32],[66,23.5]]]}},{"type":"Feature","properties":{"polityId":"liangzhu","color":"#2e8b7a","name":{"en":"Liangzhu culture","de":"Liangzhu-Kultur","zh":"良渚文明"},"note":"Approximate educational outline","wiki":"https://en.wikipedia.org/wiki/Liangzhu_culture"},"geometry":{"type":"Polygon","coordinates":[[[119.2,30],[121.2,30],[121.2,31.4],[119.2,31.4],[119.2,30]]]}}]}