{"type":"FeatureCollection","properties":{"year":-323},"features":[{"type":"Feature","properties":{"polityId":"warring-states","color":"#c45c26","name":{"en":"Warring States China","de":"Zeit der Streitenden Reiche","zh":"战国"},"note":"Approximate educational outline","wiki":"https://en.wikipedia.org/wiki/Warring_States_period"},"geometry":{"type":"Polygon","coordinates":[[[104,25],[122,25],[123,42],[108,42],[100,36],[104,25]]]}},{"type":"Feature","properties":{"polityId":"alexander","color":"#4169e1","name":{"en":"Alexander’s empire (peak)","de":"Alexanderreich (Höhepunkt)","zh":"亚历山大帝国（极盛）"},"note":"Approximate educational outline","wiki":"https://en.wikipedia.org/wiki/Wars_of_Alexander_the_Great"},"geometry":{"type":"Polygon","coordinates":[[[19,24],[75,24],[75,42],[50,44],[25,42],[19,36],[19,24]]]}},{"type":"Feature","properties":{"polityId":"rome-early","color":"#8b0000","name":{"en":"Roman Republic (Italy)","de":"Römische Republik (Italien)","zh":"罗马共和国（意大利）"},"note":"Approximate educational outline","wiki":"https://en.wikipedia.org/wiki/Roman_Republic"},"geometry":{"type":"Polygon","coordinates":[[[8,37],[18.5,37],[18.5,46],[8,46],[8,37]]]}},{"type":"Feature","properties":{"polityId":"carthage","color":"#8b4513","name":{"en":"Carthaginian sphere","de":"Karthagischer Raum","zh":"迦太基势力"},"note":"Approximate educational outline","wiki":"https://en.wikipedia.org/wiki/Ancient_Carthage"},"geometry":{"type":"Polygon","coordinates":[[[-10,30],[12,30],[12,37.5],[-5,37.5],[-10,34],[-10,30]]]}}]}