{"type":"FeatureCollection","properties":{"year":-338},"features":[{"type":"Feature","properties":{"polityId":"egypt-late","color":"#c9a227","name":{"en":"Late Period Egypt","de":"Spätzeit Ägypten","zh":"埃及后期王朝"},"note":"Approximate educational outline","wiki":"https://en.wikipedia.org/wiki/Late_Period_of_ancient_Egypt"},"geometry":{"type":"Polygon","coordinates":[[[29.8,22],[34.2,22],[34.2,31.4],[29.8,31.4],[29.8,22]]]}},{"type":"Feature","properties":{"polityId":"phoenicia","color":"#2e8b7a","name":{"en":"Phoenician cities","de":"Phönizische Städte","zh":"腓尼基城邦"},"note":"Approximate educational outline","wiki":"https://en.wikipedia.org/wiki/Phoenicia"},"geometry":{"type":"Polygon","coordinates":[[[34.6,32.8],[36.4,32.8],[36.4,35.2],[34.6,35.2],[34.6,32.8]]]}},{"type":"Feature","properties":{"polityId":"warring-states","color":"#c45c26","name":{"en":"Warring States China","de":"Zeit der Streitenden Reiche","zh":"战国"},"note":"Approximate educational outline","wiki":"https://en.wikipedia.org/wiki/Warring_States_period"},"geometry":{"type":"Polygon","coordinates":[[[104,25],[122,25],[123,42],[108,42],[100,36],[104,25]]]}},{"type":"Feature","properties":{"polityId":"classical-greece","color":"#4a6fa5","name":{"en":"Classical Greek world","de":"Klassisches Griechenland","zh":"古典希腊世界"},"note":"Approximate educational outline","wiki":"https://en.wikipedia.org/wiki/Classical_Greece"},"geometry":{"type":"Polygon","coordinates":[[[19.5,36],[28.5,36],[28.5,41.5],[19.5,41.5],[19.5,36]]]}},{"type":"Feature","properties":{"polityId":"macedon","color":"#4a6fa5","name":{"en":"Kingdom of Macedon","de":"Königreich Makedonien","zh":"马其顿王国"},"note":"Approximate educational outline","wiki":"https://en.wikipedia.org/wiki/Macedonia_(ancient_kingdom)"},"geometry":{"type":"Polygon","coordinates":[[[20,39],[28,39],[28,42.5],[20,42.5],[20,39]]]}},{"type":"Feature","properties":{"polityId":"achaemenid","color":"#b8860b","name":{"en":"Achaemenid Empire","de":"Achämenidenreich","zh":"阿契美尼德帝国"},"note":"Approximate educational outline","wiki":"https://en.wikipedia.org/wiki/Achaemenid_Empire"},"geometry":{"type":"Polygon","coordinates":[[[25,24],[70,24],[72,40],[60,44],[45,42],[32,38],[25,32],[25,24]]]}},{"type":"Feature","properties":{"polityId":"rome-early","color":"#8b0000","name":{"en":"Roman Republic (Italy)","de":"Römische Republik (Italien)","zh":"罗马共和国（意大利）"},"note":"Approximate educational outline","wiki":"https://en.wikipedia.org/wiki/Roman_Republic"},"geometry":{"type":"Polygon","coordinates":[[[8,37],[18.5,37],[18.5,46],[8,46],[8,37]]]}},{"type":"Feature","properties":{"polityId":"carthage","color":"#8b4513","name":{"en":"Carthaginian sphere","de":"Karthagischer Raum","zh":"迦太基势力"},"note":"Approximate educational outline","wiki":"https://en.wikipedia.org/wiki/Ancient_Carthage"},"geometry":{"type":"Polygon","coordinates":[[[-10,30],[12,30],[12,37.5],[-5,37.5],[-10,34],[-10,30]]]}}]}