{"type":"FeatureCollection","properties":{"year":-3400},"features":[{"type":"Feature","properties":{"polityId":"sumer","color":"#8b5a2b","name":{"en":"Sumerian city-states","de":"Sumerische Stadtstaaten","zh":"苏美尔城邦"},"note":"Approximate educational outline","wiki":"https://en.wikipedia.org/wiki/Sumer"},"geometry":{"type":"Polygon","coordinates":[[[44,30],[48.5,30],[48.5,33.8],[44,33.8],[44,30]]]}},{"type":"Feature","properties":{"polityId":"yellow-river","color":"#c45c26","name":{"en":"Yellow River cultures","de":"Gelber-Fluss-Kulturen","zh":"黄河流域文化"},"note":"Approximate educational outline","wiki":"https://en.wikipedia.org/wiki/Yellow_River"},"geometry":{"type":"Polygon","coordinates":[[[108,32],[119,32],[119,41],[108,41],[108,32]]]}}]}