{"type":"FeatureCollection","features":[{"type":"Feature","properties":{"polityId":"achaemenid","color":"#b8860b","name":{"en":"Achaemenid Persian Empire","de":"Achämenidenreich","zh":"阿契美尼德波斯帝国"}},"geometry":{"type":"Polygon","coordinates":[[[25,24],[72,24],[72,42],[44,46],[25,42],[25,24]]]}},{"type":"Feature","properties":{"polityId":"classical-greece","color":"#4a6fa5","name":{"en":"Classical Greek world","de":"Klassisches Griechenland","zh":"古典希腊世界"}},"geometry":{"type":"Polygon","coordinates":[[[19,36],[28,36],[28,41.5],[19,41.5],[19,36]]]}},{"type":"Feature","properties":{"polityId":"zhou-warring","color":"#c45c26","name":{"en":"Zhou / Warring States China","de":"Zhou / Streitende Reiche","zh":"周/战国"}},"geometry":{"type":"Polygon","coordinates":[[[98,22],[122,22],[125,42],[105,45],[95,38],[98,22]]]}},{"type":"Feature","properties":{"polityId":"magadha","color":"#2e8b7a","name":{"en":"Magadha & Indian kingdoms","de":"Magadha und indische Reiche","zh":"摩揭陀与印度诸国"}},"geometry":{"type":"Polygon","coordinates":[[[70,12],[90,12],[90,32],[70,32],[70,12]]]}},{"type":"Feature","properties":{"polityId":"carthage","color":"#8b4513","name":{"en":"Carthaginian sphere","de":"Karthagischer Raum","zh":"迦太基势力"}},"geometry":{"type":"Polygon","coordinates":[[[-10,30],[12,30],[12,37],[-10,37],[-10,30]]]}}]}