{"type":"FeatureCollection","properties":{"year":-550},"features":[{"type":"Feature","properties":{"polityId":"egypt-late","color":"#c9a227","name":{"en":"Late Period Egypt","de":"Spätzeit Ägypten","zh":"埃及后期王朝"},"note":"Approximate educational outline","wiki":"https://en.wikipedia.org/wiki/Late_Period_of_ancient_Egypt"},"geometry":{"type":"Polygon","coordinates":[[[29.8,22],[34.2,22],[34.2,31.4],[29.8,31.4],[29.8,22]]]}},{"type":"Feature","properties":{"polityId":"neo-babylon","color":"#8b5a2b","name":{"en":"Neo-Babylonian Empire","de":"Neubabylonisches Reich","zh":"新巴比伦帝国"},"note":"Approximate educational outline","wiki":"https://en.wikipedia.org/wiki/Neo-Babylonian_Empire"},"geometry":{"type":"Polygon","coordinates":[[[40,29],[49,29],[49,36],[42,37],[40,33],[40,29]]]}},{"type":"Feature","properties":{"polityId":"phoenicia","color":"#2e8b7a","name":{"en":"Phoenician cities","de":"Phönizische Städte","zh":"腓尼基城邦"},"note":"Approximate educational outline","wiki":"https://en.wikipedia.org/wiki/Phoenicia"},"geometry":{"type":"Polygon","coordinates":[[[34.6,32.8],[36.4,32.8],[36.4,35.2],[34.6,35.2],[34.6,32.8]]]}},{"type":"Feature","properties":{"polityId":"eastern-zhou","color":"#c45c26","name":{"en":"Eastern Zhou / Spring and Autumn","de":"Östliche Zhou","zh":"东周/春秋"},"note":"Approximate educational outline","wiki":"https://en.wikipedia.org/wiki/Eastern_Zhou"},"geometry":{"type":"Polygon","coordinates":[[[105,32],[118,32],[118,40],[105,40],[105,32]]]}},{"type":"Feature","properties":{"polityId":"achaemenid","color":"#b8860b","name":{"en":"Achaemenid Empire","de":"Achämenidenreich","zh":"阿契美尼德帝国"},"note":"Approximate educational outline","wiki":"https://en.wikipedia.org/wiki/Achaemenid_Empire"},"geometry":{"type":"Polygon","coordinates":[[[25,24],[70,24],[72,40],[60,44],[45,42],[32,38],[25,32],[25,24]]]}},{"type":"Feature","properties":{"polityId":"carthage","color":"#8b4513","name":{"en":"Carthaginian sphere","de":"Karthagischer Raum","zh":"迦太基势力"},"note":"Approximate educational outline","wiki":"https://en.wikipedia.org/wiki/Ancient_Carthage"},"geometry":{"type":"Polygon","coordinates":[[[-10,30],[12,30],[12,37.5],[-5,37.5],[-10,34],[-10,30]]]}}]}