{"type":"FeatureCollection","properties":{"year":-664},"features":[{"type":"Feature","properties":{"polityId":"egypt-late","color":"#c9a227","name":{"en":"Late Period Egypt","de":"Spätzeit Ägypten","zh":"埃及后期王朝"},"note":"Approximate educational outline","wiki":"https://en.wikipedia.org/wiki/Late_Period_of_ancient_Egypt"},"geometry":{"type":"Polygon","coordinates":[[[29.8,22],[34.2,22],[34.2,31.4],[29.8,31.4],[29.8,22]]]}},{"type":"Feature","properties":{"polityId":"neo-assyria","color":"#a0522d","name":{"en":"Neo-Assyrian Empire","de":"Neuassyrisches Reich","zh":"新亚述帝国"},"note":"Approximate educational outline","wiki":"https://en.wikipedia.org/wiki/Neo-Assyrian_Empire"},"geometry":{"type":"Polygon","coordinates":[[[38,33],[50,32],[50,38],[42,42],[35,38],[38,33]]]}},{"type":"Feature","properties":{"polityId":"phoenicia","color":"#2e8b7a","name":{"en":"Phoenician cities","de":"Phönizische Städte","zh":"腓尼基城邦"},"note":"Approximate educational outline","wiki":"https://en.wikipedia.org/wiki/Phoenicia"},"geometry":{"type":"Polygon","coordinates":[[[34.6,32.8],[36.4,32.8],[36.4,35.2],[34.6,35.2],[34.6,32.8]]]}},{"type":"Feature","properties":{"polityId":"eastern-zhou","color":"#c45c26","name":{"en":"Eastern Zhou / Spring and Autumn","de":"Östliche Zhou","zh":"东周/春秋"},"note":"Approximate educational outline","wiki":"https://en.wikipedia.org/wiki/Eastern_Zhou"},"geometry":{"type":"Polygon","coordinates":[[[105,32],[118,32],[118,40],[105,40],[105,32]]]}}]}