{"type":"FeatureCollection","features":[{"type":"Feature","properties":{"polityId":"roman","color":"#8b0000","name":{"en":"Roman Empire","de":"Römisches Reich","zh":"罗马帝国"}},"geometry":{"type":"Polygon","coordinates":[[[-10,28],[40,28],[42,45],[10,55],[-10,48],[-10,28]]]}},{"type":"Feature","properties":{"polityId":"parthia","color":"#b8860b","name":{"en":"Parthian Empire","de":"Partherreich","zh":"帕提亚帝国"}},"geometry":{"type":"Polygon","coordinates":[[[44,28],[68,28],[68,40],[44,40],[44,28]]]}},{"type":"Feature","properties":{"polityId":"han","color":"#c45c26","name":{"en":"Han China","de":"Han-China","zh":"汉朝"}},"geometry":{"type":"Polygon","coordinates":[[[98,22],[122,22],[125,42],[105,45],[95,38],[98,22]]]}},{"type":"Feature","properties":{"polityId":"kushan-sphere","color":"#6b4c9a","name":{"en":"Central Asian / Kushan sphere","de":"Zentralasien / Kushana","zh":"中亚/贵霜势力"}},"geometry":{"type":"Polygon","coordinates":[[[60,30],[80,30],[80,42],[60,42],[60,30]]]}}]}