{"type":"FeatureCollection","features":[{"type":"Feature","properties":{"polityId":"byzantine","color":"#4a6fa5","name":{"en":"Byzantine Empire","de":"Byzantinisches Reich","zh":"拜占庭帝国"}},"geometry":{"type":"Polygon","coordinates":[[[20,35],[42,35],[42,44],[26,44],[20,35]]]}},{"type":"Feature","properties":{"polityId":"song","color":"#c45c26","name":{"en":"Song China","de":"Song-China","zh":"宋朝"}},"geometry":{"type":"Polygon","coordinates":[[[108,22],[122,22],[122,38],[108,38],[108,22]]]}},{"type":"Feature","properties":{"polityId":"islamic-east","color":"#2e8b57","name":{"en":"Islamic East (fragmented)","de":"Islamischer Osten (zersplittert)","zh":"东方伊斯兰世界（分裂）"}},"geometry":{"type":"Polygon","coordinates":[[[30,20],[65,20],[68,40],[40,42],[30,35],[30,20]]]}},{"type":"Feature","properties":{"polityId":"hre","color":"#6b8e23","name":{"en":"Holy Roman Empire core","de":"Heiliges Römisches Reich (Kern)","zh":"神圣罗马帝国核心"}},"geometry":{"type":"Polygon","coordinates":[[[5,45],[18,45],[18,55],[5,55],[5,45]]]}},{"type":"Feature","properties":{"polityId":"kievan","color":"#8b4513","name":{"en":"Kievan Rus’","de":"Kiewer Rus","zh":"基辅罗斯"}},"geometry":{"type":"Polygon","coordinates":[[[28,48],[42,48],[42,60],[28,60],[28,48]]]}}]}