{"type":"FeatureCollection","properties":{"year":1218},"features":[{"type":"Feature","properties":{"polityId":"delhi","color":"#2e8b7a","name":{"en":"Delhi Sultanate","de":"Delhi-Sultanat","zh":"德里苏丹国"},"note":"Approximate educational outline","wiki":"https://en.wikipedia.org/wiki/Delhi_Sultanate"},"geometry":{"type":"Polygon","coordinates":[[[70,12],[88,12],[88,30],[70,30],[70,12]]]}},{"type":"Feature","properties":{"polityId":"western-xia","color":"#cd853f","name":{"en":"Western Xia","de":"Westliche Xia","zh":"西夏"},"note":"Approximate educational outline","wiki":"https://en.wikipedia.org/wiki/Western_Xia"},"geometry":{"type":"Polygon","coordinates":[[[100,35],[110,35],[110,42],[100,42],[100,35]]]}},{"type":"Feature","properties":{"polityId":"jin-jurchen","color":"#8b4513","name":{"en":"Jin dynasty (Jurchen)","de":"Jin-Dynastie (Jurchen)","zh":"金朝"},"note":"Approximate educational outline","wiki":"https://en.wikipedia.org/wiki/Jin_dynasty_(1115–1234)"},"geometry":{"type":"Polygon","coordinates":[[[108,32],[130,32],[135,48],[112,48],[105,40],[108,32]]]}},{"type":"Feature","properties":{"polityId":"western-liao","color":"#556b2f","name":{"en":"Western Liao (Qara Khitai)","de":"Westliche Liao (Kara Kitai)","zh":"西辽"},"note":"Approximate educational outline","wiki":"https://en.wikipedia.org/wiki/Qara_Khitai"},"geometry":{"type":"Polygon","coordinates":[[[65,38],[90,38],[90,48],[65,48],[65,38]]]}},{"type":"Feature","properties":{"polityId":"south-song","color":"#c45c26","name":{"en":"Southern Song","de":"Südliche Song","zh":"南宋"},"note":"Approximate educational outline","wiki":"https://en.wikipedia.org/wiki/Song_dynasty"},"geometry":{"type":"Polygon","coordinates":[[[102,22],[122,22],[122,34],[112,34],[105,32],[102,28],[102,22]]]}},{"type":"Feature","properties":{"polityId":"abbasid","color":"#2e8b57","name":{"en":"Abbasid Caliphate","de":"Abbasiden-Kalifat","zh":"阿拔斯哈里发国"},"note":"Approximate educational outline","wiki":"https://en.wikipedia.org/wiki/Abbasid_Caliphate"},"geometry":{"type":"Polygon","coordinates":[[[30,18],[65,18],[68,40],[42,42],[30,34],[30,18]]]}},{"type":"Feature","properties":{"polityId":"mamluk","color":"#2e8b57","name":{"en":"Ayyubid / Mamluk Egypt","de":"Ayyubiden / Mamluken","zh":"阿尤布/马穆鲁克埃及"},"note":"Approximate educational outline","wiki":"https://en.wikipedia.org/wiki/Mamluk_Sultanate"},"geometry":{"type":"Polygon","coordinates":[[[29,22],[37,22],[37,32],[29,32],[29,22]]]}},{"type":"Feature","properties":{"polityId":"hre","color":"#6b8e23","name":{"en":"Holy Roman Empire","de":"Heiliges Römisches Reich","zh":"神圣罗马帝国"},"note":"Approximate educational outline","wiki":"https://en.wikipedia.org/wiki/Holy_Roman_Empire"},"geometry":{"type":"Polygon","coordinates":[[[5,45],[18,45],[18,55],[5,55],[5,45]]]}},{"type":"Feature","properties":{"polityId":"kievan","color":"#8b4513","name":{"en":"Kievan Rus’","de":"Kiewer Rus","zh":"基辅罗斯"},"note":"Approximate educational outline","wiki":"https://en.wikipedia.org/wiki/Kievan_Rus%27"},"geometry":{"type":"Polygon","coordinates":[[[28,48],[42,48],[42,60],[28,60],[28,48]]]}},{"type":"Feature","properties":{"polityId":"france","color":"#4169e1","name":{"en":"Kingdom of France","de":"Königreich Frankreich","zh":"法兰西王国"},"note":"Approximate educational outline","wiki":"https://en.wikipedia.org/wiki/Kingdom_of_France"},"geometry":{"type":"Polygon","coordinates":[[[-5,42.5],[8,42.5],[8,51],[-5,51],[-5,42.5]]]}},{"type":"Feature","properties":{"polityId":"mongol","color":"#8b0000","name":{"en":"Mongol Empire","de":"Mongolenreich","zh":"蒙古帝国"},"note":"Approximate educational outline","wiki":"https://en.wikipedia.org/wiki/Mongol_Empire"},"geometry":{"type":"Polygon","coordinates":[[[20,35],[135,35],[140,55],[60,60],[20,50],[20,35]]]}},{"type":"Feature","properties":{"polityId":"japan-heian-edo","color":"#dc143c","name":{"en":"Japan (Heian–Edo)","de":"Japan (Heian–Edo)","zh":"日本（平安–江户）"},"note":"Approximate educational outline","wiki":"https://en.wikipedia.org/wiki/History_of_Japan"},"geometry":{"type":"Polygon","coordinates":[[[129,31],[146,31],[146,45],[129,45],[129,31]]]}}]}