{"type":"FeatureCollection","features":[{"type":"Feature","properties":{"polityId":"mongol","color":"#8b0000","name":{"en":"Mongol Empire","de":"Mongolenreich","zh":"蒙古帝国"}},"geometry":{"type":"Polygon","coordinates":[[[20,35],[135,35],[140,55],[60,60],[20,50],[20,35]]]}},{"type":"Feature","properties":{"polityId":"delhi","color":"#2e8b7a","name":{"en":"Delhi Sultanate","de":"Delhi-Sultanat","zh":"德里苏丹国"}},"geometry":{"type":"Polygon","coordinates":[[[70,12],[88,12],[88,30],[70,30],[70,12]]]}},{"type":"Feature","properties":{"polityId":"song-south","color":"#c45c26","name":{"en":"Southern Song (before fall)","de":"Südliche Song (vor dem Fall)","zh":"南宋（灭亡前）"}},"geometry":{"type":"Polygon","coordinates":[[[110,22],[122,22],[122,34],[110,34],[110,22]]]}},{"type":"Feature","properties":{"polityId":"ayyubid-mamluk","color":"#2e8b57","name":{"en":"Ayyubid / Mamluk Egypt","de":"Ayyubiden / Mamluken Ägypten","zh":"阿尤布/马穆鲁克埃及"}},"geometry":{"type":"Polygon","coordinates":[[[29.5,22],[34.5,22],[34.5,31.5],[29.5,31.5],[29.5,22]]]}}]}