{"type":"FeatureCollection","properties":{"year":1258},"features":[{"type":"Feature","properties":{"polityId":"delhi","color":"#2e8b7a","name":{"en":"Delhi Sultanate","de":"Delhi-Sultanat","zh":"德里苏丹国"},"note":"Approximate educational outline","wiki":"https://en.wikipedia.org/wiki/Delhi_Sultanate"},"geometry":{"type":"Polygon","coordinates":[[[70,12],[88,12],[88,30],[70,30],[70,12]]]}},{"type":"Feature","properties":{"polityId":"south-song","color":"#c45c26","name":{"en":"Southern Song","de":"Südliche Song","zh":"南宋"},"note":"Approximate educational outline","wiki":"https://en.wikipedia.org/wiki/Song_dynasty"},"geometry":{"type":"Polygon","coordinates":[[[102,22],[122,22],[122,34],[112,34],[105,32],[102,28],[102,22]]]}},{"type":"Feature","properties":{"polityId":"abbasid","color":"#2e8b57","name":{"en":"Abbasid Caliphate","de":"Abbasiden-Kalifat","zh":"阿拔斯哈里发国"},"note":"Approximate educational outline","wiki":"https://en.wikipedia.org/wiki/Abbasid_Caliphate"},"geometry":{"type":"Polygon","coordinates":[[[30,18],[65,18],[68,40],[42,42],[30,34],[30,18]]]}},{"type":"Feature","properties":{"polityId":"mamluk","color":"#2e8b57","name":{"en":"Ayyubid / Mamluk Egypt","de":"Ayyubiden / Mamluken","zh":"阿尤布/马穆鲁克埃及"},"note":"Approximate educational outline","wiki":"https://en.wikipedia.org/wiki/Mamluk_Sultanate"},"geometry":{"type":"Polygon","coordinates":[[[29,22],[37,22],[37,32],[29,32],[29,22]]]}},{"type":"Feature","properties":{"polityId":"hre","color":"#6b8e23","name":{"en":"Holy Roman Empire","de":"Heiliges Römisches Reich","zh":"神圣罗马帝国"},"note":"Approximate educational outline","wiki":"https://en.wikipedia.org/wiki/Holy_Roman_Empire"},"geometry":{"type":"Polygon","coordinates":[[[5,45],[18,45],[18,55],[5,55],[5,45]]]}},{"type":"Feature","properties":{"polityId":"france","color":"#4169e1","name":{"en":"Kingdom of France","de":"Königreich Frankreich","zh":"法兰西王国"},"note":"Approximate educational outline","wiki":"https://en.wikipedia.org/wiki/Kingdom_of_France"},"geometry":{"type":"Polygon","coordinates":[[[-5,42.5],[8,42.5],[8,51],[-5,51],[-5,42.5]]]}},{"type":"Feature","properties":{"polityId":"mongol","color":"#8b0000","name":{"en":"Mongol Empire","de":"Mongolenreich","zh":"蒙古帝国"},"note":"Approximate educational outline","wiki":"https://en.wikipedia.org/wiki/Mongol_Empire"},"geometry":{"type":"Polygon","coordinates":[[[20,35],[135,35],[140,55],[60,60],[20,50],[20,35]]]}},{"type":"Feature","properties":{"polityId":"golden-horde","color":"#a52a2a","name":{"en":"Golden Horde","de":"Goldene Horde","zh":"金帐汗国"},"note":"Approximate educational outline","wiki":"https://en.wikipedia.org/wiki/Golden_Horde"},"geometry":{"type":"Polygon","coordinates":[[[30,44],[70,44],[70,55],[30,55],[30,44]]]}},{"type":"Feature","properties":{"polityId":"ilkhanate","color":"#cd5c5c","name":{"en":"Ilkhanate","de":"Ilchanat","zh":"伊儿汗国"},"note":"Approximate educational outline","wiki":"https://en.wikipedia.org/wiki/Ilkhanate"},"geometry":{"type":"Polygon","coordinates":[[[40,28],[68,28],[68,42],[40,42],[40,28]]]}},{"type":"Feature","properties":{"polityId":"japan-heian-edo","color":"#dc143c","name":{"en":"Japan (Heian–Edo)","de":"Japan (Heian–Edo)","zh":"日本（平安–江户）"},"note":"Approximate educational outline","wiki":"https://en.wikipedia.org/wiki/History_of_Japan"},"geometry":{"type":"Polygon","coordinates":[[[129,31],[146,31],[146,45],[129,45],[129,31]]]}}]}