{"type":"FeatureCollection","properties":{"year":1455},"features":[{"type":"Feature","properties":{"polityId":"delhi","color":"#2e8b7a","name":{"en":"Delhi Sultanate","de":"Delhi-Sultanat","zh":"德里苏丹国"},"note":"Approximate educational outline","wiki":"https://en.wikipedia.org/wiki/Delhi_Sultanate"},"geometry":{"type":"Polygon","coordinates":[[[70,12],[88,12],[88,30],[70,30],[70,12]]]}},{"type":"Feature","properties":{"polityId":"ming","color":"#c45c26","name":{"en":"Ming dynasty","de":"Ming-Dynastie","zh":"明朝"},"note":"Approximate educational outline","wiki":"https://en.wikipedia.org/wiki/Ming_dynasty"},"geometry":{"type":"Polygon","coordinates":[[[100,18],[123,18],[123,42],[100,42],[100,18]]]}},{"type":"Feature","properties":{"polityId":"ming-mongolia","color":"#8b0000","name":{"en":"Ming-period Mongolia","de":"Mongolen der Ming-Zeit","zh":"明代蒙古"},"note":"Approximate educational outline","wiki":"https://en.wikipedia.org/wiki/Northern_Yuan"},"geometry":{"type":"Polygon","coordinates":[[[87,41],[120,41],[125,50],[105,53],[85,48],[87,41]]]}},{"type":"Feature","properties":{"polityId":"mamluk","color":"#2e8b57","name":{"en":"Ayyubid / Mamluk Egypt","de":"Ayyubiden / Mamluken","zh":"阿尤布/马穆鲁克埃及"},"note":"Approximate educational outline","wiki":"https://en.wikipedia.org/wiki/Mamluk_Sultanate"},"geometry":{"type":"Polygon","coordinates":[[[29,22],[37,22],[37,32],[29,32],[29,22]]]}},{"type":"Feature","properties":{"polityId":"hre","color":"#6b8e23","name":{"en":"Holy Roman Empire","de":"Heiliges Römisches Reich","zh":"神圣罗马帝国"},"note":"Approximate educational outline","wiki":"https://en.wikipedia.org/wiki/Holy_Roman_Empire"},"geometry":{"type":"Polygon","coordinates":[[[5,45],[18,45],[18,55],[5,55],[5,45]]]}},{"type":"Feature","properties":{"polityId":"france","color":"#4169e1","name":{"en":"Kingdom of France","de":"Königreich Frankreich","zh":"法兰西王国"},"note":"Approximate educational outline","wiki":"https://en.wikipedia.org/wiki/Kingdom_of_France"},"geometry":{"type":"Polygon","coordinates":[[[-5,42.5],[8,42.5],[8,51],[-5,51],[-5,42.5]]]}},{"type":"Feature","properties":{"polityId":"golden-horde","color":"#a52a2a","name":{"en":"Golden Horde","de":"Goldene Horde","zh":"金帐汗国"},"note":"Approximate educational outline","wiki":"https://en.wikipedia.org/wiki/Golden_Horde"},"geometry":{"type":"Polygon","coordinates":[[[30,44],[70,44],[70,55],[30,55],[30,44]]]}},{"type":"Feature","properties":{"polityId":"timurid","color":"#cd853f","name":{"en":"Timurid Empire","de":"Timuridenreich","zh":"帖木儿帝国"},"note":"Approximate educational outline","wiki":"https://en.wikipedia.org/wiki/Timurid_Empire"},"geometry":{"type":"Polygon","coordinates":[[[55,30],[75,30],[75,42],[55,42],[55,30]]]}},{"type":"Feature","properties":{"polityId":"moscow","color":"#8b0000","name":{"en":"Grand Duchy of Moscow","de":"Großfürstentum Moskau","zh":"莫斯科大公国"},"note":"Approximate educational outline","wiki":"https://en.wikipedia.org/wiki/Grand_Duchy_of_Moscow"},"geometry":{"type":"Polygon","coordinates":[[[30,52],[45,52],[45,60],[30,60],[30,52]]]}},{"type":"Feature","properties":{"polityId":"ottoman-peak","color":"#2e8b57","name":{"en":"Ottoman Empire","de":"Osmanisches Reich","zh":"奥斯曼帝国"},"note":"Approximate educational outline","wiki":"https://en.wikipedia.org/wiki/Ottoman_Empire"},"geometry":{"type":"Polygon","coordinates":[[[13,30],[48,30],[48,46],[26,47],[13,40],[13,30]]]}},{"type":"Feature","properties":{"polityId":"joseon","color":"#4a6fa5","name":{"en":"Joseon Korea","de":"Joseon-Korea","zh":"朝鲜王朝"},"note":"Approximate educational outline","wiki":"https://en.wikipedia.org/wiki/Joseon"},"geometry":{"type":"Polygon","coordinates":[[[124.5,33.5],[130.5,33.5],[130.5,39],[124.5,39],[124.5,33.5]]]}},{"type":"Feature","properties":{"polityId":"japan-heian-edo","color":"#dc143c","name":{"en":"Japan (Heian–Edo)","de":"Japan (Heian–Edo)","zh":"日本（平安–江户）"},"note":"Approximate educational outline","wiki":"https://en.wikipedia.org/wiki/History_of_Japan"},"geometry":{"type":"Polygon","coordinates":[[[129,31],[146,31],[146,45],[129,45],[129,31]]]}}]}