{"type":"FeatureCollection","features":[{"type":"Feature","properties":{"polityId":"ottoman","color":"#2e8b57","name":{"en":"Ottoman Empire","de":"Osmanisches Reich","zh":"奥斯曼帝国"}},"geometry":{"type":"Polygon","coordinates":[[[20,30],[48,30],[48,45],[26,46],[20,36],[20,30]]]}},{"type":"Feature","properties":{"polityId":"ming","color":"#c45c26","name":{"en":"Ming China","de":"Ming-China","zh":"明朝"}},"geometry":{"type":"Polygon","coordinates":[[[100,20],[122,20],[122,42],[100,42],[100,20]]]}},{"type":"Feature","properties":{"polityId":"safavid","color":"#b8860b","name":{"en":"Safavid Persia (rising)","de":"Safawidisches Persien (aufsteigend)","zh":"萨法维波斯（兴起）"}},"geometry":{"type":"Polygon","coordinates":[[[44,25],[64,25],[64,40],[44,40],[44,25]]]}},{"type":"Feature","properties":{"polityId":"delhi-late","color":"#2e8b7a","name":{"en":"North Indian sultanates","de":"Nordindische Sultanate","zh":"北印度苏丹国"}},"geometry":{"type":"Polygon","coordinates":[[[70,12],[88,12],[88,30],[70,30],[70,12]]]}},{"type":"Feature","properties":{"polityId":"moscow","color":"#8b0000","name":{"en":"Grand Duchy of Moscow","de":"Großfürstentum Moskau","zh":"莫斯科大公国"}},"geometry":{"type":"Polygon","coordinates":[[[30,52],[45,52],[45,60],[30,60],[30,52]]]}},{"type":"Feature","properties":{"polityId":"hre","color":"#6b8e23","name":{"en":"Holy Roman Empire","de":"Heiliges Römisches Reich","zh":"神圣罗马帝国"}},"geometry":{"type":"Polygon","coordinates":[[[5,45],[18,45],[18,55],[5,55],[5,45]]]}}]}