{"type":"FeatureCollection","features":[{"type":"Feature","properties":{"polityId":"qing","color":"#c45c26","name":{"en":"Qing China","de":"Qing-China","zh":"清朝"}},"geometry":{"type":"Polygon","coordinates":[[[85,18],[135,18],[140,50],[100,55],[75,45],[85,18]]]}},{"type":"Feature","properties":{"polityId":"ottoman","color":"#2e8b57","name":{"en":"Ottoman Empire","de":"Osmanisches Reich","zh":"奥斯曼帝国"}},"geometry":{"type":"Polygon","coordinates":[[[20,30],[48,30],[48,45],[26,46],[20,36],[20,30]]]}},{"type":"Feature","properties":{"polityId":"russian","color":"#8b0000","name":{"en":"Russian Empire","de":"Russisches Kaiserreich","zh":"俄罗斯帝国"}},"geometry":{"type":"Polygon","coordinates":[[[20,45],[170,45],[170,70],[30,70],[20,55],[20,45]]]}},{"type":"Feature","properties":{"polityId":"british-india","color":"#4a6fa5","name":{"en":"British India (Company rule)","de":"Britisch-Indien (Company)","zh":"英属印度（东印度公司）"}},"geometry":{"type":"Polygon","coordinates":[[[68,8],[92,8],[92,32],[68,32],[68,8]]]}},{"type":"Feature","properties":{"polityId":"qajar","color":"#b8860b","name":{"en":"Qajar Iran","de":"Kadscharisches Iran","zh":"卡扎尔伊朗"}},"geometry":{"type":"Polygon","coordinates":[[[44,25],[63,25],[63,40],[44,40],[44,25]]]}},{"type":"Feature","properties":{"polityId":"napoleonic-europe","color":"#6b8e23","name":{"en":"European great powers","de":"Europäische Großmächte","zh":"欧洲列强"}},"geometry":{"type":"Polygon","coordinates":[[[-5,36],[25,36],[25,55],[-5,55],[-5,36]]]}}]}