{"type":"FeatureCollection","properties":{"year":1952},"features":[{"type":"Feature","properties":{"polityId":"india","color":"#2e8b7a","name":{"en":"Republic of India","de":"Republik Indien","zh":"印度共和国"},"note":"Approximate educational outline","wiki":"https://en.wikipedia.org/wiki/India"},"geometry":{"type":"Polygon","coordinates":[[[68,8],[90,8],[90,32],[68,32],[68,8]]]}},{"type":"Feature","properties":{"polityId":"roc-prc","color":"#c45c26","name":{"en":"China (ROC / PRC)","de":"China (Republik / VR)","zh":"中国（民国/中华人民共和国）"},"note":"Approximate educational outline","wiki":"https://en.wikipedia.org/wiki/China"},"geometry":{"type":"Polygon","coordinates":[[[73,18],[135,18],[135,48],[100,53],[73,42],[73,18]]]}},{"type":"Feature","properties":{"polityId":"iran","color":"#b8860b","name":{"en":"Iran","de":"Iran","zh":"伊朗"},"note":"Approximate educational outline","wiki":"https://en.wikipedia.org/wiki/Iran"},"geometry":{"type":"Polygon","coordinates":[[[44,25],[63,25],[63,40],[44,40],[44,25]]]}},{"type":"Feature","properties":{"polityId":"britain","color":"#4a6fa5","name":{"en":"Britain / UK","de":"Britannien / UK","zh":"不列颠/英国"},"note":"Approximate educational outline","wiki":"https://en.wikipedia.org/wiki/United_Kingdom"},"geometry":{"type":"Polygon","coordinates":[[[-8,50],[2,50],[2,59],[-8,59],[-8,50]]]}},{"type":"Feature","properties":{"polityId":"eu-core","color":"#6b8e23","name":{"en":"European states (core)","de":"Europäische Staaten (Kern)","zh":"欧洲国家（核心）"},"note":"Approximate educational outline","wiki":"https://en.wikipedia.org/wiki/Europe"},"geometry":{"type":"Polygon","coordinates":[[[-5,36],[25,36],[25,55],[-5,55],[-5,36]]]}},{"type":"Feature","properties":{"polityId":"ussr","color":"#8b0000","name":{"en":"Soviet Union","de":"Sowjetunion","zh":"苏联"},"note":"Approximate educational outline","wiki":"https://en.wikipedia.org/wiki/Soviet_Union"},"geometry":{"type":"Polygon","coordinates":[[[20,40],[170,40],[170,72],[30,72],[20,55],[20,40]]]}},{"type":"Feature","properties":{"polityId":"turkey","color":"#2e8b57","name":{"en":"Republic of Turkey","de":"Republik Türkei","zh":"土耳其共和国"},"note":"Approximate educational outline","wiki":"https://en.wikipedia.org/wiki/Turkey"},"geometry":{"type":"Polygon","coordinates":[[[26,36],[45,36],[45,42],[26,42],[26,36]]]}},{"type":"Feature","properties":{"polityId":"korea","color":"#4a6fa5","name":{"en":"Korea","de":"Korea","zh":"朝鲜半岛"},"note":"Approximate educational outline","wiki":"https://en.wikipedia.org/wiki/Korea"},"geometry":{"type":"Polygon","coordinates":[[[124.5,33.5],[130.5,33.5],[130.5,39],[124.5,39],[124.5,33.5]]]}},{"type":"Feature","properties":{"polityId":"japan","color":"#dc143c","name":{"en":"Japan","de":"Japan","zh":"日本"},"note":"Approximate educational outline","wiki":"https://en.wikipedia.org/wiki/Japan"},"geometry":{"type":"Polygon","coordinates":[[[129,31],[146,31],[146,45],[129,45],[129,31]]]}}]}