{"type":"FeatureCollection","features":[{"type":"Feature","properties":{"polityId":"roman","color":"#8b0000","name":{"en":"Roman Empire","de":"Römisches Reich","zh":"罗马帝国"}},"geometry":{"type":"Polygon","coordinates":[[[-10,28],[40,28],[42,45],[10,55],[-10,48],[-10,28]]]}},{"type":"Feature","properties":{"polityId":"parthia","color":"#b8860b","name":{"en":"Parthian Empire","de":"Partherreich","zh":"帕提亚帝国"}},"geometry":{"type":"Polygon","coordinates":[[[44,28],[68,28],[68,40],[44,40],[44,28]]]}},{"type":"Feature","properties":{"polityId":"han-late","color":"#c45c26","name":{"en":"Eastern Han China","de":"Östliches Han-China","zh":"东汉"}},"geometry":{"type":"Polygon","coordinates":[[[98,22],[122,22],[125,42],[105,45],[95,38],[98,22]]]}},{"type":"Feature","properties":{"polityId":"silla-early","color":"#4a6fa5","name":{"en":"Korean kingdoms","de":"Koreanische Reiche","zh":"朝鲜半岛诸国"}},"geometry":{"type":"Polygon","coordinates":[[[126,34],[130,34],[130,39],[126,39],[126,34]]]}}]}