{"type":"FeatureCollection","properties":{"year":291},"features":[{"type":"Feature","properties":{"polityId":"jin-sui","color":"#c45c26","name":{"en":"Jin / Northern & Southern / Sui","de":"Jin / Nord-Süd / Sui","zh":"晋/南北朝/隋"},"note":"Approximate educational outline","wiki":"https://en.wikipedia.org/wiki/Sui_dynasty"},"geometry":{"type":"Polygon","coordinates":[[[98,20],[122,20],[126,42],[108,45],[95,38],[98,20]]]}},{"type":"Feature","properties":{"polityId":"sasanian","color":"#b8860b","name":{"en":"Sasanian Empire","de":"Sasanidenreich","zh":"萨珊帝国"},"note":"Approximate educational outline","wiki":"https://en.wikipedia.org/wiki/Sasanian_Empire"},"geometry":{"type":"Polygon","coordinates":[[[40,25],[68,25],[70,42],[48,42],[40,35],[40,25]]]}},{"type":"Feature","properties":{"polityId":"roman-empire","color":"#8b0000","name":{"en":"Roman Empire","de":"Römisches Reich","zh":"罗马帝国"},"note":"Approximate educational outline","wiki":"https://en.wikipedia.org/wiki/Roman_Empire"},"geometry":{"type":"Polygon","coordinates":[[[-10,28],[40,28],[42,45],[12,55],[-10,48],[-10,28]]]}},{"type":"Feature","properties":{"polityId":"silla","color":"#4a6fa5","name":{"en":"Silla / Korean kingdoms","de":"Silla / koreanische Reiche","zh":"新罗/朝鲜半岛诸国"},"note":"Approximate educational outline","wiki":"https://en.wikipedia.org/wiki/Silla"},"geometry":{"type":"Polygon","coordinates":[[[126,34],[130.5,34],[130.5,39],[126,39],[126,34]]]}},{"type":"Feature","properties":{"polityId":"yamato","color":"#dc143c","name":{"en":"Yamato Japan","de":"Yamato-Japan","zh":"大和日本"},"note":"Approximate educational outline","wiki":"https://en.wikipedia.org/wiki/Yamato_period"},"geometry":{"type":"Polygon","coordinates":[[[130,33],[141,33],[141,41],[130,41],[130,33]]]}},{"type":"Feature","properties":{"polityId":"kushan","color":"#6b4c9a","name":{"en":"Kushan Empire","de":"Kuschana-Reich","zh":"贵霜帝国"},"note":"Approximate educational outline","wiki":"https://en.wikipedia.org/wiki/Kushan_Empire"},"geometry":{"type":"Polygon","coordinates":[[[60,30],[80,30],[80,42],[60,42],[60,30]]]}}]}