{"type":"FeatureCollection","properties":{"year":395},"features":[{"type":"Feature","properties":{"polityId":"gupta","color":"#2e8b7a","name":{"en":"Gupta Empire","de":"Gupta-Reich","zh":"笈多帝国"},"note":"Approximate educational outline","wiki":"https://en.wikipedia.org/wiki/Gupta_Empire"},"geometry":{"type":"Polygon","coordinates":[[[72,15],[90,15],[90,30],[72,30],[72,15]]]}},{"type":"Feature","properties":{"polityId":"sixteen-kingdoms","color":"#a85a2a","name":{"en":"Sixteen Kingdoms","de":"Sechzehn Königreiche","zh":"十六国"},"note":"Approximate educational outline","wiki":"https://en.wikipedia.org/wiki/Sixteen_Kingdoms"},"geometry":{"type":"Polygon","coordinates":[[[105,33],[122,33],[122,42],[105,42],[105,33]]]}},{"type":"Feature","properties":{"polityId":"eastern-jin","color":"#c45c26","name":{"en":"Eastern Jin","de":"Östliche Jin","zh":"东晋"},"note":"Approximate educational outline","wiki":"https://en.wikipedia.org/wiki/Eastern_Jin_(265–420)"},"geometry":{"type":"Polygon","coordinates":[[[108,22],[122,22],[122,33],[108,33],[108,22]]]}},{"type":"Feature","properties":{"polityId":"sasanian","color":"#b8860b","name":{"en":"Sasanian Empire","de":"Sasanidenreich","zh":"萨珊帝国"},"note":"Approximate educational outline","wiki":"https://en.wikipedia.org/wiki/Sasanian_Empire"},"geometry":{"type":"Polygon","coordinates":[[[40,25],[68,25],[70,42],[48,42],[40,35],[40,25]]]}},{"type":"Feature","properties":{"polityId":"roman-empire","color":"#8b0000","name":{"en":"Roman Empire","de":"Römisches Reich","zh":"罗马帝国"},"note":"Approximate educational outline","wiki":"https://en.wikipedia.org/wiki/Roman_Empire"},"geometry":{"type":"Polygon","coordinates":[[[-10,28],[40,28],[42,45],[12,55],[-10,48],[-10,28]]]}},{"type":"Feature","properties":{"polityId":"wre","color":"#a52a2a","name":{"en":"Western Roman Empire","de":"Weströmisches Reich","zh":"西罗马帝国"},"note":"Approximate educational outline","wiki":"https://en.wikipedia.org/wiki/Western_Roman_Empire"},"geometry":{"type":"Polygon","coordinates":[[[-10,30],[20,30],[25,45],[5,55],[-10,48],[-10,30]]]}},{"type":"Feature","properties":{"polityId":"byzantine","color":"#4a6fa5","name":{"en":"Byzantine Empire","de":"Byzantinisches Reich","zh":"拜占庭帝国"},"note":"Approximate educational outline","wiki":"https://en.wikipedia.org/wiki/Byzantine_Empire"},"geometry":{"type":"Polygon","coordinates":[[[20,32],[42,32],[42,44],[26,44],[20,36],[20,32]]]}},{"type":"Feature","properties":{"polityId":"silla","color":"#4a6fa5","name":{"en":"Silla / Korean kingdoms","de":"Silla / koreanische Reiche","zh":"新罗/朝鲜半岛诸国"},"note":"Approximate educational outline","wiki":"https://en.wikipedia.org/wiki/Silla"},"geometry":{"type":"Polygon","coordinates":[[[126,34],[130.5,34],[130.5,39],[126,39],[126,34]]]}},{"type":"Feature","properties":{"polityId":"yamato","color":"#dc143c","name":{"en":"Yamato Japan","de":"Yamato-Japan","zh":"大和日本"},"note":"Approximate educational outline","wiki":"https://en.wikipedia.org/wiki/Yamato_period"},"geometry":{"type":"Polygon","coordinates":[[[130,33],[141,33],[141,41],[130,41],[130,33]]]}}]}