{"type":"FeatureCollection","properties":{"year":527},"features":[{"type":"Feature","properties":{"polityId":"gupta","color":"#2e8b7a","name":{"en":"Gupta Empire","de":"Gupta-Reich","zh":"笈多帝国"},"note":"Approximate educational outline","wiki":"https://en.wikipedia.org/wiki/Gupta_Empire"},"geometry":{"type":"Polygon","coordinates":[[[72,15],[90,15],[90,30],[72,30],[72,15]]]}},{"type":"Feature","properties":{"polityId":"northern-wei","color":"#8b5a2b","name":{"en":"Northern Wei","de":"Nördliche Wei","zh":"北魏"},"note":"Approximate educational outline","wiki":"https://en.wikipedia.org/wiki/Northern_Wei"},"geometry":{"type":"Polygon","coordinates":[[[105,33],[122,33],[122,42],[105,42],[105,33]]]}},{"type":"Feature","properties":{"polityId":"southern-dynasties","color":"#c45c26","name":{"en":"Southern dynasties","de":"Südliche Dynastien","zh":"南朝"},"note":"Approximate educational outline","wiki":"https://en.wikipedia.org/wiki/Northern_and_Southern_dynasties"},"geometry":{"type":"Polygon","coordinates":[[[108,22],[122,22],[122,33],[108,33],[108,22]]]}},{"type":"Feature","properties":{"polityId":"sasanian","color":"#b8860b","name":{"en":"Sasanian Empire","de":"Sasanidenreich","zh":"萨珊帝国"},"note":"Approximate educational outline","wiki":"https://en.wikipedia.org/wiki/Sasanian_Empire"},"geometry":{"type":"Polygon","coordinates":[[[40,25],[68,25],[70,42],[48,42],[40,35],[40,25]]]}},{"type":"Feature","properties":{"polityId":"byzantine","color":"#4a6fa5","name":{"en":"Byzantine Empire","de":"Byzantinisches Reich","zh":"拜占庭帝国"},"note":"Approximate educational outline","wiki":"https://en.wikipedia.org/wiki/Byzantine_Empire"},"geometry":{"type":"Polygon","coordinates":[[[20,32],[42,32],[42,44],[26,44],[20,36],[20,32]]]}},{"type":"Feature","properties":{"polityId":"silla","color":"#4a6fa5","name":{"en":"Silla / Korean kingdoms","de":"Silla / koreanische Reiche","zh":"新罗/朝鲜半岛诸国"},"note":"Approximate educational outline","wiki":"https://en.wikipedia.org/wiki/Silla"},"geometry":{"type":"Polygon","coordinates":[[[126,34],[130.5,34],[130.5,39],[126,39],[126,34]]]}},{"type":"Feature","properties":{"polityId":"yamato","color":"#dc143c","name":{"en":"Yamato Japan","de":"Yamato-Japan","zh":"大和日本"},"note":"Approximate educational outline","wiki":"https://en.wikipedia.org/wiki/Yamato_period"},"geometry":{"type":"Polygon","coordinates":[[[130,33],[141,33],[141,41],[130,41],[130,33]]]}}]}