{"type":"FeatureCollection","properties":{"year":565},"features":[{"type":"Feature","properties":{"polityId":"southern-dynasties","color":"#c45c26","name":{"en":"Southern dynasties","de":"Südliche Dynastien","zh":"南朝"},"note":"Approximate educational outline","wiki":"https://en.wikipedia.org/wiki/Northern_and_Southern_dynasties"},"geometry":{"type":"Polygon","coordinates":[[[108,22],[122,22],[122,33],[108,33],[108,22]]]}},{"type":"Feature","properties":{"polityId":"northern-east","color":"#9a6430","name":{"en":"Eastern Wei / Northern Qi","de":"Östliche Wei / Nördliche Qi","zh":"东魏/北齐"},"note":"Approximate educational outline","wiki":"https://en.wikipedia.org/wiki/Northern_Qi"},"geometry":{"type":"Polygon","coordinates":[[[112,33],[122,33],[122,42],[112,42],[112,33]]]}},{"type":"Feature","properties":{"polityId":"northern-west","color":"#7a4a28","name":{"en":"Western Wei / Northern Zhou","de":"Westliche Wei / Nördliche Zhou","zh":"西魏/北周"},"note":"Approximate educational outline","wiki":"https://en.wikipedia.org/wiki/Northern_Zhou"},"geometry":{"type":"Polygon","coordinates":[[[105,33],[114,33],[114,40],[105,40],[105,33]]]}},{"type":"Feature","properties":{"polityId":"sasanian","color":"#b8860b","name":{"en":"Sasanian Empire","de":"Sasanidenreich","zh":"萨珊帝国"},"note":"Approximate educational outline","wiki":"https://en.wikipedia.org/wiki/Sasanian_Empire"},"geometry":{"type":"Polygon","coordinates":[[[40,25],[68,25],[70,42],[48,42],[40,35],[40,25]]]}},{"type":"Feature","properties":{"polityId":"byzantine","color":"#4a6fa5","name":{"en":"Byzantine Empire","de":"Byzantinisches Reich","zh":"拜占庭帝国"},"note":"Approximate educational outline","wiki":"https://en.wikipedia.org/wiki/Byzantine_Empire"},"geometry":{"type":"Polygon","coordinates":[[[20,32],[42,32],[42,44],[26,44],[20,36],[20,32]]]}},{"type":"Feature","properties":{"polityId":"silla","color":"#4a6fa5","name":{"en":"Silla / Korean kingdoms","de":"Silla / koreanische Reiche","zh":"新罗/朝鲜半岛诸国"},"note":"Approximate educational outline","wiki":"https://en.wikipedia.org/wiki/Silla"},"geometry":{"type":"Polygon","coordinates":[[[126,34],[130.5,34],[130.5,39],[126,39],[126,34]]]}},{"type":"Feature","properties":{"polityId":"yamato","color":"#dc143c","name":{"en":"Yamato Japan","de":"Yamato-Japan","zh":"大和日本"},"note":"Approximate educational outline","wiki":"https://en.wikipedia.org/wiki/Yamato_period"},"geometry":{"type":"Polygon","coordinates":[[[130,33],[141,33],[141,41],[130,41],[130,33]]]}}]}