{"type":"FeatureCollection","properties":{"year":57},"features":[{"type":"Feature","properties":{"polityId":"han","color":"#c45c26","name":{"en":"Han dynasty","de":"Han-Dynastie","zh":"汉朝"},"note":"Approximate educational outline","wiki":"https://en.wikipedia.org/wiki/Han_dynasty"},"geometry":{"type":"Polygon","coordinates":[[[98,20],[122,20],[126,42],[108,45],[95,38],[98,20]]]}},{"type":"Feature","properties":{"polityId":"parthia","color":"#b8860b","name":{"en":"Parthian Empire","de":"Partherreich","zh":"帕提亚帝国"},"note":"Approximate educational outline","wiki":"https://en.wikipedia.org/wiki/Parthian_Empire"},"geometry":{"type":"Polygon","coordinates":[[[44,28],[68,28],[68,40],[44,40],[44,28]]]}},{"type":"Feature","properties":{"polityId":"roman-empire","color":"#8b0000","name":{"en":"Roman Empire","de":"Römisches Reich","zh":"罗马帝国"},"note":"Approximate educational outline","wiki":"https://en.wikipedia.org/wiki/Roman_Empire"},"geometry":{"type":"Polygon","coordinates":[[[-10,28],[40,28],[42,45],[12,55],[-10,48],[-10,28]]]}},{"type":"Feature","properties":{"polityId":"silla","color":"#4a6fa5","name":{"en":"Silla / Korean kingdoms","de":"Silla / koreanische Reiche","zh":"新罗/朝鲜半岛诸国"},"note":"Approximate educational outline","wiki":"https://en.wikipedia.org/wiki/Silla"},"geometry":{"type":"Polygon","coordinates":[[[126,34],[130.5,34],[130.5,39],[126,39],[126,34]]]}},{"type":"Feature","properties":{"polityId":"kushan","color":"#6b4c9a","name":{"en":"Kushan Empire","de":"Kuschana-Reich","zh":"贵霜帝国"},"note":"Approximate educational outline","wiki":"https://en.wikipedia.org/wiki/Kushan_Empire"},"geometry":{"type":"Polygon","coordinates":[[[60,30],[80,30],[80,42],[60,42],[60,30]]]}}]}