{"type":"FeatureCollection","features":[{"type":"Feature","properties":{"polityId":"byzantine","color":"#4a6fa5","name":{"en":"Byzantine Empire","de":"Byzantinisches Reich","zh":"拜占庭帝国"}},"geometry":{"type":"Polygon","coordinates":[[[20,35],[42,35],[42,44],[26,44],[20,35]]]}},{"type":"Feature","properties":{"polityId":"sasanian","color":"#b8860b","name":{"en":"Sasanian Empire","de":"Sasanidenreich","zh":"萨珊帝国"}},"geometry":{"type":"Polygon","coordinates":[[[42,25],[68,25],[68,42],[42,42],[42,25]]]}},{"type":"Feature","properties":{"polityId":"tang","color":"#c45c26","name":{"en":"Tang China (rising)","de":"Tang-China (aufsteigend)","zh":"唐朝（兴起）"}},"geometry":{"type":"Polygon","coordinates":[[[95,22],[125,22],[125,45],[100,48],[85,40],[95,22]]]}},{"type":"Feature","properties":{"polityId":"gupta-late","color":"#2e8b7a","name":{"en":"Post-Gupta Indian kingdoms","de":"Nach-Gupta indische Reiche","zh":"后笈多印度诸国"}},"geometry":{"type":"Polygon","coordinates":[[[72,15],[90,15],[90,30],[72,30],[72,15]]]}},{"type":"Feature","properties":{"polityId":"frankish","color":"#6b8e23","name":{"en":"Frankish kingdoms","de":"Fränkische Reiche","zh":"法兰克诸国"}},"geometry":{"type":"Polygon","coordinates":[[[-5,42],[15,42],[15,54],[-5,54],[-5,42]]]}}]}