{"type":"FeatureCollection","properties":{"year":700},"features":[{"type":"Feature","properties":{"polityId":"tang","color":"#c45c26","name":{"en":"Tang dynasty","de":"Tang-Dynastie","zh":"唐朝"},"note":"Approximate educational outline","wiki":"https://en.wikipedia.org/wiki/Tang_dynasty"},"geometry":{"type":"Polygon","coordinates":[[[85,22],[125,22],[128,45],[100,48],[80,40],[85,22]]]}},{"type":"Feature","properties":{"polityId":"byzantine","color":"#4a6fa5","name":{"en":"Byzantine Empire","de":"Byzantinisches Reich","zh":"拜占庭帝国"},"note":"Approximate educational outline","wiki":"https://en.wikipedia.org/wiki/Byzantine_Empire"},"geometry":{"type":"Polygon","coordinates":[[[20,32],[42,32],[42,44],[26,44],[20,36],[20,32]]]}},{"type":"Feature","properties":{"polityId":"rashidun-umayyad","color":"#2e8b57","name":{"en":"Rashidun / Umayyad Caliphate","de":"Raschidun / Umayyaden","zh":"正统/倭马亚哈里发"},"note":"Approximate educational outline","wiki":"https://en.wikipedia.org/wiki/Umayyad_Caliphate"},"geometry":{"type":"Polygon","coordinates":[[[-9,28],[70,18],[72,40],[35,42],[-5,38],[-9,28]]]}},{"type":"Feature","properties":{"polityId":"tibet-empire","color":"#8b6914","name":{"en":"Tibetan Empire","de":"Tibetisches Reich","zh":"吐蕃"},"note":"Approximate educational outline","wiki":"https://en.wikipedia.org/wiki/Tibetan_Empire"},"geometry":{"type":"Polygon","coordinates":[[[80,28],[100,28],[100,36],[80,36],[80,28]]]}},{"type":"Feature","properties":{"polityId":"silla","color":"#4a6fa5","name":{"en":"Silla / Korean kingdoms","de":"Silla / koreanische Reiche","zh":"新罗/朝鲜半岛诸国"},"note":"Approximate educational outline","wiki":"https://en.wikipedia.org/wiki/Silla"},"geometry":{"type":"Polygon","coordinates":[[[126,34],[130.5,34],[130.5,39],[126,39],[126,34]]]}},{"type":"Feature","properties":{"polityId":"yamato","color":"#dc143c","name":{"en":"Yamato Japan","de":"Yamato-Japan","zh":"大和日本"},"note":"Approximate educational outline","wiki":"https://en.wikipedia.org/wiki/Yamato_period"},"geometry":{"type":"Polygon","coordinates":[[[130,33],[141,33],[141,41],[130,41],[130,33]]]}}]}