{"type":"FeatureCollection","properties":{"year":768},"features":[{"type":"Feature","properties":{"polityId":"tang","color":"#c45c26","name":{"en":"Tang dynasty","de":"Tang-Dynastie","zh":"唐朝"},"note":"Approximate educational outline","wiki":"https://en.wikipedia.org/wiki/Tang_dynasty"},"geometry":{"type":"Polygon","coordinates":[[[85,22],[125,22],[128,45],[100,48],[80,40],[85,22]]]}},{"type":"Feature","properties":{"polityId":"byzantine","color":"#4a6fa5","name":{"en":"Byzantine Empire","de":"Byzantinisches Reich","zh":"拜占庭帝国"},"note":"Approximate educational outline","wiki":"https://en.wikipedia.org/wiki/Byzantine_Empire"},"geometry":{"type":"Polygon","coordinates":[[[20,32],[42,32],[42,44],[26,44],[20,36],[20,32]]]}},{"type":"Feature","properties":{"polityId":"abbasid","color":"#2e8b57","name":{"en":"Abbasid Caliphate","de":"Abbasiden-Kalifat","zh":"阿拔斯哈里发国"},"note":"Approximate educational outline","wiki":"https://en.wikipedia.org/wiki/Abbasid_Caliphate"},"geometry":{"type":"Polygon","coordinates":[[[30,18],[65,18],[68,40],[42,42],[30,34],[30,18]]]}},{"type":"Feature","properties":{"polityId":"carolingian","color":"#6b8e23","name":{"en":"Carolingian Empire","de":"Karolingerreich","zh":"加洛林帝国"},"note":"Approximate educational outline","wiki":"https://en.wikipedia.org/wiki/Carolingian_Empire"},"geometry":{"type":"Polygon","coordinates":[[[-5,42],[16,42],[16,54],[-5,54],[-5,42]]]}},{"type":"Feature","properties":{"polityId":"tibet-empire","color":"#8b6914","name":{"en":"Tibetan Empire","de":"Tibetisches Reich","zh":"吐蕃"},"note":"Approximate educational outline","wiki":"https://en.wikipedia.org/wiki/Tibetan_Empire"},"geometry":{"type":"Polygon","coordinates":[[[80,28],[100,28],[100,36],[80,36],[80,28]]]}},{"type":"Feature","properties":{"polityId":"silla","color":"#4a6fa5","name":{"en":"Silla / Korean kingdoms","de":"Silla / koreanische Reiche","zh":"新罗/朝鲜半岛诸国"},"note":"Approximate educational outline","wiki":"https://en.wikipedia.org/wiki/Silla"},"geometry":{"type":"Polygon","coordinates":[[[126,34],[130.5,34],[130.5,39],[126,39],[126,34]]]}}]}