{"type":"FeatureCollection","features":[{"type":"Feature","properties":{"polityId":"abbasid","color":"#2e8b57","name":{"en":"Abbasid Caliphate","de":"Abbasiden-Kalifat","zh":"阿拔斯哈里发国"}},"geometry":{"type":"Polygon","coordinates":[[[30,20],[65,20],[68,40],[40,42],[30,35],[30,20]]]}},{"type":"Feature","properties":{"polityId":"byzantine","color":"#4a6fa5","name":{"en":"Byzantine Empire","de":"Byzantinisches Reich","zh":"拜占庭帝国"}},"geometry":{"type":"Polygon","coordinates":[[[20,35],[42,35],[42,44],[26,44],[20,35]]]}},{"type":"Feature","properties":{"polityId":"carolingian","color":"#6b8e23","name":{"en":"Carolingian Empire","de":"Karolingerreich","zh":"加洛林帝国"}},"geometry":{"type":"Polygon","coordinates":[[[-5,42],[15,42],[15,54],[-5,54],[-5,42]]]}},{"type":"Feature","properties":{"polityId":"tang","color":"#c45c26","name":{"en":"Tang China","de":"Tang-China","zh":"唐朝"}},"geometry":{"type":"Polygon","coordinates":[[[95,22],[125,22],[125,45],[100,48],[85,40],[95,22]]]}},{"type":"Feature","properties":{"polityId":"tibet","color":"#8b6914","name":{"en":"Tibetan Empire","de":"Tibetisches Reich","zh":"吐蕃"}},"geometry":{"type":"Polygon","coordinates":[[[80,28],[100,28],[100,36],[80,36],[80,28]]]}}]}