{"type":"FeatureCollection","properties":{"year":894},"features":[{"type":"Feature","properties":{"polityId":"tang","color":"#c45c26","name":{"en":"Tang dynasty","de":"Tang-Dynastie","zh":"唐朝"},"note":"Approximate educational outline","wiki":"https://en.wikipedia.org/wiki/Tang_dynasty"},"geometry":{"type":"Polygon","coordinates":[[[85,22],[125,22],[128,45],[100,48],[80,40],[85,22]]]}},{"type":"Feature","properties":{"polityId":"byzantine","color":"#4a6fa5","name":{"en":"Byzantine Empire","de":"Byzantinisches Reich","zh":"拜占庭帝国"},"note":"Approximate educational outline","wiki":"https://en.wikipedia.org/wiki/Byzantine_Empire"},"geometry":{"type":"Polygon","coordinates":[[[20,32],[42,32],[42,44],[26,44],[20,36],[20,32]]]}},{"type":"Feature","properties":{"polityId":"abbasid","color":"#2e8b57","name":{"en":"Abbasid Caliphate","de":"Abbasiden-Kalifat","zh":"阿拔斯哈里发国"},"note":"Approximate educational outline","wiki":"https://en.wikipedia.org/wiki/Abbasid_Caliphate"},"geometry":{"type":"Polygon","coordinates":[[[30,18],[65,18],[68,40],[42,42],[30,34],[30,18]]]}},{"type":"Feature","properties":{"polityId":"kievan","color":"#8b4513","name":{"en":"Kievan Rus’","de":"Kiewer Rus","zh":"基辅罗斯"},"note":"Approximate educational outline","wiki":"https://en.wikipedia.org/wiki/Kievan_Rus%27"},"geometry":{"type":"Polygon","coordinates":[[[28,48],[42,48],[42,60],[28,60],[28,48]]]}},{"type":"Feature","properties":{"polityId":"silla","color":"#4a6fa5","name":{"en":"Silla / Korean kingdoms","de":"Silla / koreanische Reiche","zh":"新罗/朝鲜半岛诸国"},"note":"Approximate educational outline","wiki":"https://en.wikipedia.org/wiki/Silla"},"geometry":{"type":"Polygon","coordinates":[[[126,34],[130.5,34],[130.5,39],[126,39],[126,34]]]}},{"type":"Feature","properties":{"polityId":"japan-heian-edo","color":"#dc143c","name":{"en":"Japan (Heian–Edo)","de":"Japan (Heian–Edo)","zh":"日本（平安–江户）"},"note":"Approximate educational outline","wiki":"https://en.wikipedia.org/wiki/History_of_Japan"},"geometry":{"type":"Polygon","coordinates":[[[129,31],[146,31],[146,45],[129,45],[129,31]]]}}]}