{"type":"FeatureCollection","properties":{"year":959},"features":[{"type":"Feature","properties":{"polityId":"five-dynasties","color":"#b86b3a","name":{"en":"Five Dynasties and Ten Kingdoms","de":"Fünf Dynastien und Zehn Reiche","zh":"五代十国"},"note":"Approximate educational outline","wiki":"https://en.wikipedia.org/wiki/Five_Dynasties_and_Ten_Kingdoms_period"},"geometry":{"type":"Polygon","coordinates":[[[108,22],[122,22],[122,36],[108,36],[108,22]]]}},{"type":"Feature","properties":{"polityId":"liao","color":"#6b8e23","name":{"en":"Liao dynasty","de":"Liao-Dynastie","zh":"辽朝"},"note":"Approximate educational outline","wiki":"https://en.wikipedia.org/wiki/Liao_dynasty"},"geometry":{"type":"Polygon","coordinates":[[[110,38],[130,38],[135,48],[115,50],[105,45],[110,38]]]}},{"type":"Feature","properties":{"polityId":"byzantine","color":"#4a6fa5","name":{"en":"Byzantine Empire","de":"Byzantinisches Reich","zh":"拜占庭帝国"},"note":"Approximate educational outline","wiki":"https://en.wikipedia.org/wiki/Byzantine_Empire"},"geometry":{"type":"Polygon","coordinates":[[[20,32],[42,32],[42,44],[26,44],[20,36],[20,32]]]}},{"type":"Feature","properties":{"polityId":"abbasid","color":"#2e8b57","name":{"en":"Abbasid Caliphate","de":"Abbasiden-Kalifat","zh":"阿拔斯哈里发国"},"note":"Approximate educational outline","wiki":"https://en.wikipedia.org/wiki/Abbasid_Caliphate"},"geometry":{"type":"Polygon","coordinates":[[[30,18],[65,18],[68,40],[42,42],[30,34],[30,18]]]}},{"type":"Feature","properties":{"polityId":"fatimid","color":"#3cb371","name":{"en":"Fatimid Caliphate","de":"Fatimiden-Kalifat","zh":"法蒂玛哈里发"},"note":"Approximate educational outline","wiki":"https://en.wikipedia.org/wiki/Fatimid_Caliphate"},"geometry":{"type":"Polygon","coordinates":[[[-5,22],[38,22],[38,34],[10,34],[-5,30],[-5,22]]]}},{"type":"Feature","properties":{"polityId":"kievan","color":"#8b4513","name":{"en":"Kievan Rus’","de":"Kiewer Rus","zh":"基辅罗斯"},"note":"Approximate educational outline","wiki":"https://en.wikipedia.org/wiki/Kievan_Rus%27"},"geometry":{"type":"Polygon","coordinates":[[[28,48],[42,48],[42,60],[28,60],[28,48]]]}},{"type":"Feature","properties":{"polityId":"japan-heian-edo","color":"#dc143c","name":{"en":"Japan (Heian–Edo)","de":"Japan (Heian–Edo)","zh":"日本（平安–江户）"},"note":"Approximate educational outline","wiki":"https://en.wikipedia.org/wiki/History_of_Japan"},"geometry":{"type":"Polygon","coordinates":[[[129,31],[146,31],[146,45],[129,45],[129,31]]]}}]}