{"type":"FeatureCollection","properties":{"year":-1600},"features":[{"type":"Feature","properties":{"polityId":"old-babylon","color":"#8b5a2b","name":{"en":"Old Babylonian kingdom","de":"Altbabylonisches Reich","zh":"古巴比伦王国"},"note":"Approximate educational outline","wiki":"https://en.wikipedia.org/wiki/First_Babylonian_Empire"},"geometry":{"type":"Polygon","coordinates":[[[43,30.5],[48,30.5],[48,34.5],[43,34.5],[43,30.5]]]}},{"type":"Feature","properties":{"polityId":"hittite","color":"#6b4c9a","name":{"en":"Hittite Empire","de":"Hethiterreich","zh":"赫梯帝国"},"note":"Approximate educational outline","wiki":"https://en.wikipedia.org/wiki/Hittites"},"geometry":{"type":"Polygon","coordinates":[[[32,36],[42,36],[42,42],[32,42],[32,36]]]}},{"type":"Feature","properties":{"polityId":"indus","color":"#2e8b7a","name":{"en":"Indus Valley Civilization","de":"Indus-Kultur","zh":"印度河文明"},"note":"Approximate educational outline","wiki":"https://en.wikipedia.org/wiki/Indus_Valley_Civilisation"},"geometry":{"type":"Polygon","coordinates":[[[66,23.5],[76,23.5],[76,32],[66,32],[66,23.5]]]}},{"type":"Feature","properties":{"polityId":"shang","color":"#c45c26","name":{"en":"Shang dynasty","de":"Shang-Dynastie","zh":"商朝"},"note":"Approximate educational outline","wiki":"https://en.wikipedia.org/wiki/Shang_dynasty"},"geometry":{"type":"Polygon","coordinates":[[[110,32],[120,32],[120,40],[110,40],[110,32]]]}},{"type":"Feature","properties":{"polityId":"minoan","color":"#4a6fa5","name":{"en":"Minoan Crete","de":"Minoisches Kreta","zh":"米诺斯克里特"},"note":"Approximate educational outline","wiki":"https://en.wikipedia.org/wiki/Minoan_civilization"},"geometry":{"type":"Polygon","coordinates":[[[23.2,34.7],[26.5,34.7],[26.5,35.7],[23.2,35.7],[23.2,34.7]]]}},{"type":"Feature","properties":{"polityId":"mycenae","color":"#4a6fa5","name":{"en":"Mycenaean Greece","de":"Mykenisches Griechenland","zh":"迈锡尼希腊"},"note":"Approximate educational outline","wiki":"https://en.wikipedia.org/wiki/Mycenaean_Greece"},"geometry":{"type":"Polygon","coordinates":[[[21,36],[27,36],[27,39.2],[21,39.2],[21,36]]]}}]}