{"type":"FeatureCollection","properties":{"year":-1700},"features":[{"type":"Feature","properties":{"polityId":"egypt-mk","color":"#c9a227","name":{"en":"Middle Kingdom Egypt","de":"Mittleres Reich Ägypten","zh":"埃及中王国"},"note":"Approximate educational outline","wiki":"https://en.wikipedia.org/wiki/Middle_Kingdom_of_Egypt"},"geometry":{"type":"Polygon","coordinates":[[[29.8,22],[34.2,22],[34.2,31.4],[29.8,31.4],[29.8,22]]]}},{"type":"Feature","properties":{"polityId":"old-babylon","color":"#8b5a2b","name":{"en":"Old Babylonian kingdom","de":"Altbabylonisches Reich","zh":"古巴比伦王国"},"note":"Approximate educational outline","wiki":"https://en.wikipedia.org/wiki/First_Babylonian_Empire"},"geometry":{"type":"Polygon","coordinates":[[[43,30.5],[48,30.5],[48,34.5],[43,34.5],[43,30.5]]]}},{"type":"Feature","properties":{"polityId":"indus","color":"#2e8b7a","name":{"en":"Indus Valley Civilization","de":"Indus-Kultur","zh":"印度河文明"},"note":"Approximate educational outline","wiki":"https://en.wikipedia.org/wiki/Indus_Valley_Civilisation"},"geometry":{"type":"Polygon","coordinates":[[[66,23.5],[76,23.5],[76,32],[66,32],[66,23.5]]]}},{"type":"Feature","properties":{"polityId":"yellow-river","color":"#c45c26","name":{"en":"Yellow River cultures","de":"Gelber-Fluss-Kulturen","zh":"黄河流域文化"},"note":"Approximate educational outline","wiki":"https://en.wikipedia.org/wiki/Yellow_River"},"geometry":{"type":"Polygon","coordinates":[[[108,32],[119,32],[119,41],[108,41],[108,32]]]}},{"type":"Feature","properties":{"polityId":"minoan","color":"#4a6fa5","name":{"en":"Minoan Crete","de":"Minoisches Kreta","zh":"米诺斯克里特"},"note":"Approximate educational outline","wiki":"https://en.wikipedia.org/wiki/Minoan_civilization"},"geometry":{"type":"Polygon","coordinates":[[[23.2,34.7],[26.5,34.7],[26.5,35.7],[23.2,35.7],[23.2,34.7]]]}}]}