{"type":"FeatureCollection","properties":{"year":-2100},"features":[{"type":"Feature","properties":{"polityId":"ur-iii","color":"#8b5a2b","name":{"en":"Third Dynasty of Ur","de":"Dritte Dynastie von Ur","zh":"乌尔第三王朝"},"note":"Approximate educational outline","wiki":"https://en.wikipedia.org/wiki/Third_Dynasty_of_Ur"},"geometry":{"type":"Polygon","coordinates":[[[44,30],[48.5,30],[48.5,33.8],[44,33.8],[44,30]]]}},{"type":"Feature","properties":{"polityId":"indus","color":"#2e8b7a","name":{"en":"Indus Valley Civilization","de":"Indus-Kultur","zh":"印度河文明"},"note":"Approximate educational outline","wiki":"https://en.wikipedia.org/wiki/Indus_Valley_Civilisation"},"geometry":{"type":"Polygon","coordinates":[[[66,23.5],[76,23.5],[76,32],[66,32],[66,23.5]]]}},{"type":"Feature","properties":{"polityId":"yellow-river","color":"#c45c26","name":{"en":"Yellow River cultures","de":"Gelber-Fluss-Kulturen","zh":"黄河流域文化"},"note":"Approximate educational outline","wiki":"https://en.wikipedia.org/wiki/Yellow_River"},"geometry":{"type":"Polygon","coordinates":[[[108,32],[119,32],[119,41],[108,41],[108,32]]]}}]}