{"type":"FeatureCollection","properties":{"year":-2154},"features":[{"type":"Feature","properties":{"polityId":"akkad","color":"#8b5a2b","name":{"en":"Akkadian Empire","de":"Akkadisches Reich","zh":"阿卡德帝国"},"note":"Approximate educational outline","wiki":"https://en.wikipedia.org/wiki/Akkadian_Empire"},"geometry":{"type":"Polygon","coordinates":[[[40,30],[49,30],[49,37],[42,38],[40,34],[40,30]]]}},{"type":"Feature","properties":{"polityId":"indus","color":"#2e8b7a","name":{"en":"Indus Valley Civilization","de":"Indus-Kultur","zh":"印度河文明"},"note":"Approximate educational outline","wiki":"https://en.wikipedia.org/wiki/Indus_Valley_Civilisation"},"geometry":{"type":"Polygon","coordinates":[[[66,23.5],[76,23.5],[76,32],[66,32],[66,23.5]]]}},{"type":"Feature","properties":{"polityId":"yellow-river","color":"#c45c26","name":{"en":"Yellow River cultures","de":"Gelber-Fluss-Kulturen","zh":"黄河流域文化"},"note":"Approximate educational outline","wiki":"https://en.wikipedia.org/wiki/Yellow_River"},"geometry":{"type":"Polygon","coordinates":[[[108,32],[119,32],[119,41],[108,41],[108,32]]]}}]}